officeId,territory,country,city,state,addressLine1,addressLine2,phone,zip
100,LATAM,Mexico,CDMX,State 1,AdressLine 1,Add1,+55 55 5555 5555,11000
101,LATAM,Mexico,Monterrey,State 2,AdressLine 2,Add2,+55 55 5555 5555,11010
102,LATAM,Mexico,Guadalajara,State 3,AdressLine 3,Add3,+55 55 5555 5555,11020
103,LATAM,Mexico,CDMX,State 4,AdressLine 4,Add4,+55 55 5555 5555,11030
104,LATAM,Mexico,Monterrey,State 5,AdressLine 5,Add5,+55 55 5555 5555,11040
105,LATAM,Mexico,Guadalajara,State 6,AdressLine 6,Add6,+55 55 5555 5555,11050
106,LATAM,Mexico,CDMX,State 7,AdressLine 7,Add7,+55 55 5555 5555,11060
107,LATAM,Mexico,Monterrey,State 8,AdressLine 8,Add8,+55 55 5555 5555,11070
108,LATAM,Mexico,Guadalajara,State 9,AdressLine 9,Add9,+55 55 5555 5555,11080
109,LATAM,Mexico,CDMX,State 10,AdressLine 10,Add10,+55 55 5555 5555,11090
110,LATAM,Mexico,Monterrey,State 11,AdressLine 11,Add11,+55 55 5555 5555,11100
111,LATAM,Mexico,Guadalajara,State 12,AdressLine 12,Add12,+55 55 5555 5555,11110
112,LATAM,Mexico,CDMX,State 13,AdressLine 13,Add13,+55 55 5555 5555,11120
113,LATAM,Mexico,Monterrey,State 14,AdressLine 14,Add14,+55 55 5555 5555,11130
114,LATAM,Mexico,Guadalajara,State 15,AdressLine 15,Add15,+55 55 5555 5555,11140
115,LATAM,Mexico,CDMX,State 16,AdressLine 16,Add16,+55 55 5555 5555,11150
116,LATAM,Mexico,Monterrey,State 17,AdressLine 17,Add17,+55 55 5555 5555,11160
117,LATAM,Mexico,Guadalajara,State 18,AdressLine 18,Add18,+55 55 5555 5555,11170
118,LATAM,Mexico,CDMX,State 19,AdressLine 19,Add19,+55 55 5555 5555,11180
119,LATAM,Mexico,Monterrey,State 20,AdressLine 20,Add20,+55 55 5555 5555,11190
120,LATAM,Mexico,Guadalajara,State 21,AdressLine 21,Add21,+55 55 5555 5555,11200
121,LATAM,Chile,Santiago de Chile,State 22,AdressLine 22,Add22,+55 55 5555 5555,11210
122,LATAM,Chile,Iquique,State 23,AdressLine 23,Add23,+55 55 5555 5555,11220
123,LATAM,Chile,Punta Arenas,State 24,AdressLine 24,Add24,+55 55 5555 5555,11230
124,LATAM,Chile,Santiago de Chile,State 25,AdressLine 25,Add25,+55 55 5555 5555,11240
125,LATAM,Chile,Iquique,State 26,AdressLine 26,Add26,+55 55 5555 5555,11250
126,LATAM,Chile,Punta Arenas,State 27,AdressLine 27,Add27,+55 55 5555 5555,11260
127,LATAM,Chile,Santiago de Chile,State 28,AdressLine 28,Add28,+55 55 5555 5555,11270
128,LATAM,Chile,Iquique,State 29,AdressLine 29,Add29,+55 55 5555 5555,11280
129,LATAM,Chile,Punta Arenas,State 30,AdressLine 30,Add30,+55 55 5555 5555,11290
130,LATAM,Chile,Santiago de Chile,State 31,AdressLine 31,Add31,+55 55 5555 5555,11300
131,LATAM,Chile,Iquique,State 32,AdressLine 32,Add32,+55 55 5555 5555,11310
132,LATAM,Chile,Punta Arenas,State 33,AdressLine 33,Add33,+55 55 5555 5555,11320
133,LATAM,Chile,Santiago de Chile,State 34,AdressLine 34,Add34,+55 55 5555 5555,11330
134,LATAM,Chile,Iquique,State 35,AdressLine 35,Add35,+55 55 5555 5555,11340
135,LATAM,Chile,Punta Arenas,State 36,AdressLine 36,Add36,+55 55 5555 5555,11350
136,LATAM,Colombia,Bogot�,State 37,AdressLine 37,Add37,+55 55 5555 5555,11360
137,LATAM,Colombia,Medell�n,State 38,AdressLine 38,Add38,+55 55 5555 5555,11370
138,LATAM,Colombia,Cartageba,State 39,AdressLine 39,Add39,+55 55 5555 5555,11380
139,LATAM,Colombia,Cali,State 40,AdressLine 40,Add40,+55 55 5555 5555,11390
140,LATAM,Colombia,Bogot�,State 41,AdressLine 41,Add41,+55 55 5555 5555,11400
141,LATAM,Colombia,Medell�n,State 42,AdressLine 42,Add42,+55 55 5555 5555,11410
142,LATAM,Colombia,Cartageba,State 43,AdressLine 43,Add43,+55 55 5555 5555,11420
143,LATAM,Colombia,Cali,State 44,AdressLine 44,Add44,+55 55 5555 5555,11430
144,LATAM,Colombia,Bogot�,State 45,AdressLine 45,Add45,+55 55 5555 5555,11440
145,LATAM,Colombia,Medell�n,State 46,AdressLine 46,Add46,+55 55 5555 5555,11450
146,LATAM,Colombia,Cartageba,State 47,AdressLine 47,Add47,+55 55 5555 5555,11460
147,LATAM,Colombia,Cali,State 48,AdressLine 48,Add48,+55 55 5555 5555,11470
148,LATAM,Colombia,Bogot�,State 49,AdressLine 49,Add49,+55 55 5555 5555,11480
149,LATAM,Colombia,Medell�n,State 50,AdressLine 50,Add50,+55 55 5555 5555,11490
150,LATAM,Colombia,Cartageba,State 51,AdressLine 51,Add51,+55 55 5555 5555,11500
151,LATAM,Colombia,Cali,State 52,AdressLine 52,Add52,+55 55 5555 5555,11510
152,LATAM,Argentina,Buenos Aires,State 53,AdressLine 53,Add53,+55 55 5555 5555,11520
153,LATAM,Argentina,C�doba,State 54,AdressLine 54,Add54,+55 55 5555 5555,11530
154,LATAM,Argentina,Rosario,State 55,AdressLine 55,Add55,+55 55 5555 5555,11540
155,LATAM,Argentina,Mar del Plata,State 56,AdressLine 56,Add56,+55 55 5555 5555,11550
156,LATAM,Argentina,Buenos Aires,State 57,AdressLine 57,Add57,+55 55 5555 5555,11560
157,LATAM,Argentina,C�doba,State 58,AdressLine 58,Add58,+55 55 5555 5555,11570
158,LATAM,Argentina,Rosario,State 59,AdressLine 59,Add59,+55 55 5555 5555,11580
159,LATAM,Argentina,Mar del Plata,State 60,AdressLine 60,Add60,+55 55 5555 5555,11590
160,LATAM,Argentina,Buenos Aires,State 61,AdressLine 61,Add61,+55 55 5555 5555,11600
161,LATAM,Argentina,C�doba,State 62,AdressLine 62,Add62,+55 55 5555 5555,11610
162,LATAM,Argentina,Rosario,State 63,AdressLine 63,Add63,+55 55 5555 5555,11620
163,LATAM,Argentina,Mar del Plata,State 64,AdressLine 64,Add64,+55 55 5555 5555,11630
164,LATAM,Argentina,Buenos Aires,State 65,AdressLine 65,Add65,+55 55 5555 5555,11640
165,LATAM,Argentina,C�doba,State 66,AdressLine 66,Add66,+55 55 5555 5555,11650
166,LATAM,Argentina,Rosario,State 67,AdressLine 67,Add67,+55 55 5555 5555,11660
167,LATAM,Argentina,Mar del Plata,State 68,AdressLine 68,Add68,+55 55 5555 5555,11670
168,LATAM,Argentina,Buenos Aires,State 69,AdressLine 69,Add69,+55 55 5555 5555,11680
169,LATAM,Argentina,C�doba,State 70,AdressLine 70,Add70,+55 55 5555 5555,11690
170,LATAM,Argentina,Rosario,State 71,AdressLine 71,Add71,+55 55 5555 5555,11700
171,LATAM,Argentina,Mar del Plata,State 72,AdressLine 72,Add72,+55 55 5555 5555,11710
172,LATAM,Brasil,Sao Paulo,State 73,AdressLine 73,Add73,+55 55 5555 5555,11720
173,LATAM,Brasil,R�o de Janeiro,State 74,AdressLine 74,Add74,+55 55 5555 5555,11730
174,LATAM,Brasil,Fortaleza,State 75,AdressLine 75,Add75,+55 55 5555 5555,11740
175,LATAM,Brasil,Manaos,State 76,AdressLine 76,Add76,+55 55 5555 5555,11750
176,LATAM,Brasil,Sao Paulo,State 77,AdressLine 77,Add77,+55 55 5555 5555,11760
177,LATAM,Brasil,R�o de Janeiro,State 78,AdressLine 78,Add78,+55 55 5555 5555,11770
178,LATAM,Brasil,Fortaleza,State 79,AdressLine 79,Add79,+55 55 5555 5555,11780
179,LATAM,Brasil,Manaos,State 80,AdressLine 80,Add80,+55 55 5555 5555,11790
180,LATAM,Brasil,Sao Paulo,State 81,AdressLine 81,Add81,+55 55 5555 5555,11800
181,LATAM,Brasil,R�o de Janeiro,State 82,AdressLine 82,Add82,+55 55 5555 5555,11810
182,LATAM,Brasil,Fortaleza,State 83,AdressLine 83,Add83,+55 55 5555 5555,11820
183,LATAM,Brasil,Manaos,State 84,AdressLine 84,Add84,+55 55 5555 5555,11830
184,LATAM,Brasil,Sao Paulo,State 85,AdressLine 85,Add85,+55 55 5555 5555,11840
185,LATAM,Brasil,R�o de Janeiro,State 86,AdressLine 86,Add86,+55 55 5555 5555,11850
186,LATAM,Brasil,Fortaleza,State 87,AdressLine 87,Add87,+55 55 5555 5555,11860
187,LATAM,Brasil,Manaos,State 88,AdressLine 88,Add88,+55 55 5555 5555,11870
188,LATAM,Brasil,Sao Paulo,State 89,AdressLine 89,Add89,+55 55 5555 5555,11880
189,LATAM,Brasil,R�o de Janeiro,State 90,AdressLine 90,Add90,+55 55 5555 5555,11890
190,LATAM,Brasil,Fortaleza,State 91,AdressLine 91,Add91,+55 55 5555 5555,11900
191,LATAM,Brasil,Manaos,State 92,AdressLine 92,Add92,+55 55 5555 5555,11910
192,LATAM,Brasil,Sao Paulo,State 93,AdressLine 93,Add93,+55 55 5555 5555,11920
193,LATAM,Brasil,R�o de Janeiro,State 94,AdressLine 94,Add94,+55 55 5555 5555,11930
194,LATAM,Brasil,Fortaleza,State 95,AdressLine 95,Add95,+55 55 5555 5555,11940
195,LATAM,Brasil,Manaos,State 96,AdressLine 96,Add96,+55 55 5555 5555,11950
196,LATAM,Brasil,Sao Paulo,State 97,AdressLine 97,Add97,+55 55 5555 5555,11960
197,LATAM,Brasil,R�o de Janeiro,State 98,AdressLine 98,Add98,+55 55 5555 5555,11970
198,LATAM,Brasil,Fortaleza,State 99,AdressLine 99,Add99,+55 55 5555 5555,11980
199,LATAM,Brasil,Manaos,State 100,AdressLine 100,Add100,+55 55 5555 5555,11990
200,LATAM,Brasil,Sao Paulo,State 101,AdressLine 101,Add101,+55 55 5555 5555,12000
